{
  "norad_id": 44850,
  "name": "COSMOS 2544 [GLONASS-M]",
  "history": [
    {
      "epoch": "2026-03-23T14:58:07.497696",
      "apogee_km": 19170.165805482688,
      "perigee_km": 19089.605857615632,
      "latitude_deg": 38.25576186669993,
      "longitude_deg": 44.87499744002707,
      "semi_major_axis_km": 25508.02283154916,
      "eccentricity": 0.00157911,
      "inclination_deg": 65.5174,
      "raan_deg": 76.5851,
      "arg_perigee_deg": 260.6166,
      "mean_anomaly_deg": 99.2133,
      "mean_motion_rev_day": 2.1310202
    }
  ]
}